[{"OBJECT_NAME":"AEROCUBE 18B","OBJECT_ID":"2025-052N","EPOCH":"2026-03-09T16:50:02.994720","MEAN_MOTION":15.23094619,"ECCENTRICITY":0.00062515,"INCLINATION":97.4088,"RA_OF_ASC_NODE":323.4677,"ARG_OF_PERICENTER":110.4629,"MEAN_ANOMALY":249.728,"EPHEMERIS_TYPE":0,"CLASSIFICATION_TYPE":"U","NORAD_CAT_ID":63222,"ELEMENT_SET_NO":999,"REV_AT_EPOCH":5474,"BSTAR":0.00034527206,"MEAN_MOTION_DOT":8.078e-5,"MEAN_MOTION_DDOT":0},{"OBJECT_NAME":"OBJECT AK","OBJECT_ID":"2025-313AK","EPOCH":"2026-03-09T22:15:06.103872","MEAN_MOTION":15.21477682,"ECCENTRICITY":0.00118476,"INCLINATION":97.3947,"RA_OF_ASC_NODE":145.1584,"ARG_OF_PERICENTER":356.5328,"MEAN_ANOMALY":3.5824,"EPHEMERIS_TYPE":0,"CLASSIFICATION_TYPE":"U","NORAD_CAT_ID":67281,"ELEMENT_SET_NO":999,"REV_AT_EPOCH":1085,"BSTAR":0.00031140912,"MEAN_MOTION_DOT":6.947e-5,"MEAN_MOTION_DDOT":0}]
